HAWK-6B                 
1 55324U 23011A   26192.05118566  .00002759  00000+0  12257-3 0  9990
2 55324  40.4969 212.8596 0003524 219.2078 140.8477 15.23131238191482
HAWK-6C                 
1 55326U 23011C   26192.11612822  .00002785  00000+0  12363-3 0  9990
2 55326  40.4958 209.3159 0004051 209.3679 150.6903 15.23132905191509
HAWK-6A                 
1 55327U 23011D   26192.44400008  .00002671  00000+0  11891-3 0  9997
2 55327  40.4966 209.0301 0003622 209.0672 150.9936 15.23133850191552
HAWK-7A                 
1 56191U 23054P   26192.15233705  .00003452  00000+0  13057-3 0  9994
2 56191  97.2674  78.8807 0001840 352.8969   7.2244 15.27605934180686
HAWK-7B                 
1 56193U 23054R   26192.47978456  .00003000  00000+0  11385-3 0  9991
2 56193  97.2703  77.4726 0001726  23.6543 336.4775 15.27605259180732
HAWK-7C                 
1 56200U 23054Y   26191.10407944  .00003980  00000+0  15019-3 0  9993
2 56200  97.2679  76.8926 0001490  12.3347 347.7929 15.27600583180521
